TOMORROW-S2             
1 60485U 24149T   26068.75188364  .00008133  00000+0  27683-3 0  9990
2 60485  97.3857 150.0385 0001648 234.3331 125.7757 15.30674935 86869
STARLINK-35519          
1 65919U 25225K   26068.56082691  .00022007  00000+0  75334-3 0  9990
2 65919  53.1573 165.9062 0001012  85.3609 274.7507 15.30182599 24393
